IRIDIUM 26              
1 24903U 97043A   25356.16701715  .00000347  00000+0  10979-3 0  9992
2 24903  86.3949  31.5999 0002229  98.5192 261.6258 14.37334589483747
IRIDIUM 22              
1 24907U 97043E   25356.18359248  .00000324  00000+0  10436-3 0  9991
2 24907  86.3954  35.2944 0002331  94.1518 265.9945 14.36127857483754
DUMMY MASS 1            
1 24925U 97048A   25356.09112374  .00000389  00000+0  40135-4 0  9994
2 24925  86.3335  48.3787 0006236 178.7702 181.3539 14.87190496533053
DUMMY MASS 2            
1 24926U 97048B   25356.15196108  .00000388  00000+0  40194-4 0  9993
2 24926  86.3334  49.9931 0006471 193.3381 166.7674 14.86940959532836
IRIDIUM 29              
1 24944U 97051A   25356.27745506  .00000362  00000+0  11631-3 0  9997
2 24944  86.3946  64.9388 0002251  90.9408 269.2047 14.36669928480274
IRIDIUM 33              
1 24946U 97051C   25356.18959078  .00000323  00000+0  10633-3 0  9998
2 24946  86.3861  64.2549 0008162 169.1562 190.9812 14.35043647479700
IRIDIUM 28              
1 24948U 97051E   25356.27170623  .00000379  00000+0  11994-3 0  9993
2 24948  86.3951  62.3493 0002249 109.1624 250.9817 14.37570050480868
IRIDIUM 36              
1 24967U 97056C   25356.27533265  .00000418  00000+0  13247-3 0  9991
2 24967  86.3962  93.9755 0002312 100.5229 259.6229 14.37792208479243
